IONOSFERA-M 2           
1 61736U 24199B   26178.91759572  .00000057  00000+0  45192-4 0  9993
2 61736  98.7159  51.8864 0000586  40.6330 319.4892 14.22759450132350
PRSC-EO1                
1 62725U 25012A   26178.93868944  .00007231  00000+0  36136-3 0  9991
2 62725  97.4230 251.1883 0005657 207.4390 152.6546 15.17741154 79826
BIOMASS                 
1 63772U 25090A   26176.41992450  .00000661  00000+0  12495-3 0  9993
2 63772  98.0741   3.6181 0001429  94.8977 265.2391 14.67536962 61896
GOSAT-GW (IBUKI GW)     
1 64694U 25141A   26178.96281876  .00000853  00000+0  15885-3 0  9998
2 64694  98.0568 116.1047 0001450  83.8030 276.3340 14.67555297 53429
IONOSFERA-M 3           
1 64876U 25155A   26178.94490332  .00000043  00000+0  39158-4 0  9993
2 64876  98.6028 140.5793 0001604 138.9281 221.2018 14.21488203 47930
IONOSFERA-M 4           
1 64877U 25155B   26178.97972693  .00000051  00000+0  42894-4 0  9992
2 64877  98.6027 140.5305 0001416 115.3561 244.7763 14.21490584 47932
MICROCARB               
1 64899U 25156A   26178.95476109  .00000495  00000+0  85628-4 0  9990
2 64899  97.9920 255.9072 0015507 231.5080 128.4737 14.72533929 49551
CO3D 3                  
1 64900U 25156B   26178.91674971  .00004451  00000+0  20864-3 0  9992
2 64900  97.4338 257.4552 0001778 115.8552 244.2866 15.20196689 51167
CO3D 4                  
1 64901U 25156C   26178.91689484  .00004366  00000+0  20464-3 0  9999
2 64901  97.4337 257.4554 0000581 182.5084 177.6148 15.20212484 51165
CO3D 2                  
1 64902U 25156D   26178.94937758  .00004423  00000+0  20734-3 0  9997
2 64902  97.4336 257.3863 0001494  97.4776 262.6629 15.20195150 51162
CO3D 1                  
1 64903U 25156E   26178.94952263  .00004517  00000+0  21158-3 0  9991
2 64903  97.4334 257.3865 0001382 108.8534 251.2851 15.20212901 51163
PRSC-S1                 
1 65055U 25164A   26178.60603823  .00003481  00000+0  24305-3 0  9993
2 65055  41.1294 229.1303 0005145  60.4805 299.6522 15.06533295 50001
SENTINEL-6B             
1 66514U 25264A   26178.86031050 -.00000077  00000+0 -70238-4 0  9997
2 66514  66.0409 113.0107 0007934 268.9235  91.0871 12.80929988 28530
CAS500-3                
1 66655U 25274F   26178.77046459  .00001226  00000+0  13827-3 0  9998
2 66655  97.7444 106.5808 0006932  83.3168 276.8837 14.88345106 31726
CSG-3                   
1 67304U 26001A   26178.93319873  .00000310  00000+0  45512-4 0  9990
2 67304  97.8889   2.3794 0001481  96.0710 264.0672 14.82160767 26055
PRSC-E03                
1 68835U 26092A   26178.92469021  .00002924  00000+0  20017-3 0  9995
2 68835  38.0023  26.3619 0002747 115.4994 244.6052 15.06723761  9570
CAS500-2                
1 69013U 26100AK  26178.68075882  .00006182  00000+0  28394-3 0  9991
2 69013  97.3900  76.3456 0009497   0.7173 359.4074 15.20709310  8409
