OBJECT_NAME,OBJECT_ID,EPOCH,MEAN_MOTION,ECCENTRICITY,INCLINATION,RA_OF_ASC_NODE,ARG_OF_PERICENTER,MEAN_ANOMALY,EPHEMERIS_TYPE,CLASSIFICATION_TYPE,NORAD_CAT_ID,ELEMENT_SET_NO,REV_AT_EPOCH,BSTAR,MEAN_MOTION_DOT,MEAN_MOTION_DDOT
IONOSFERA-M 2,2024-199B,2026-06-27T22:01:20.270208,14.22759450,.00005862,98.7159,51.8864,40.6330,319.4892,0,U,61736,999,13235,.45192047E-4,.57E-6,0
PRSC-EO1,2025-012A,2026-06-27T22:31:42.767616,15.17741154,.00056572,97.4230,251.1883,207.4390,152.6546,0,U,62725,999,7982,.36135675E-3,.7231E-4,0
BIOMASS,2025-090A,2026-06-25T10:04:41.476800,14.67536962,.0001429,98.0741,3.6181,94.8977,265.2391,0,U,63772,999,6189,.12495E-3,.661E-5,0
GOSAT-GW (IBUKI GW),2025-141A,2026-06-27T23:06:27.540864,14.67555297,.00014502,98.0568,116.1047,83.8030,276.3340,0,U,64694,999,5342,.1588451E-3,.853E-5,0
IONOSFERA-M 3,2025-155A,2026-06-27T22:40:39.646848,14.21488203,.0001604,98.6028,140.5793,138.9281,221.2018,0,U,64876,999,4793,.39157962E-4,.43E-6,0
IONOSFERA-M 4,2025-155B,2026-06-27T23:30:48.406752,14.21490584,.00014165,98.6027,140.5305,115.3561,244.7763,0,U,64877,999,4793,.42894143E-4,.51E-6,0
MICROCARB,2025-156A,2026-06-27T22:54:51.358176,14.72533929,.00155075,97.9920,255.9072,231.5080,128.4737,0,U,64899,999,4955,.85627816E-4,.495E-5,0
CO3D 3,2025-156B,2026-06-27T22:00:07.174944,15.20196689,.00017784,97.4338,257.4552,115.8552,244.2866,0,U,64900,999,5116,.20863724E-3,.4451E-4,0
CO3D 4,2025-156C,2026-06-27T22:00:19.714176,15.20212484,.00005813,97.4337,257.4554,182.5084,177.6148,0,U,64901,999,5116,.20464076E-3,.4366E-4,0
CO3D 2,2025-156D,2026-06-27T22:47:06.222912,15.20195150,.00014943,97.4336,257.3863,97.4776,262.6629,0,U,64902,999,5116,.20733921E-3,.4423E-4,0
CO3D 1,2025-156E,2026-06-27T22:47:18.755232,15.20212901,.00013826,97.4334,257.3865,108.8534,251.2851,0,U,64903,999,5116,.21158349E-3,.4517E-4,0
PRSC-S1,2025-164A,2026-06-27T14:32:41.703072,15.06533295,.00051452,41.1294,229.1303,60.4805,299.6522,0,U,65055,999,5000,.24304537E-3,.3481E-4,0
SENTINEL-6B,2025-264A,2026-06-27T20:38:50.827200,12.80929988,.0007934,66.0409,113.0107,268.9235,91.0871,0,U,66514,999,2853,-.70237736E-4,-.77E-6,0
CAS500-3,2025-274F,2026-06-27T18:29:28.140576,14.88345106,.00069324,97.7444,106.5808,83.3168,276.8837,0,U,66655,999,3172,.13826589E-3,.1226E-4,0
CSG-3,2026-001A,2026-06-27T22:23:48.370272,14.82160767,.00014813,97.8889,2.3794,96.0710,264.0672,0,U,67304,999,2605,.45511998E-4,.31E-5,0
PRSC-E03,2026-092A,2026-06-27T22:11:33.234144,15.06723761,.00027475,38.0023,26.3619,115.4994,244.6052,0,U,68835,999,957,.20017062E-3,.2924E-4,0
CAS500-2,2026-100AK,2026-06-27T16:20:17.562048,15.20709310,.00094972,97.3900,76.3456,0.7173,359.4074,0,U,69013,999,840,.28394267E-3,.6182E-4,0
